{"type": "FeatureCollection", "features": [ {"type": "Feature", "properties": {"norad_id": 32323, "name": "FENGYUN 1C DEB", "group": "fengyun-1c-debris", "lat": 24.842777538904507, "lon": -36.193829877070804, "alt_km": 802.033929997282, "timestamp": "2025-12-23T07:45:09.690447+00:00", "meta": {"OBJECT_NAME": "FENGYUN 1C DEB", "OBJECT_ID": "1999-025CXQ", "EPOCH": "2025-12-19T15:19:13.533312", "MEAN_MOTION": 13.96612746, "ECCENTRICITY": 0.015623, "INCLINATION": 98.5704, "RA_OF_ASC_NODE": 136.3682, "ARG_OF_PERICENTER": 190.9743, "MEAN_ANOMALY": 168.7999, "EPHEMERIS_TYPE": 0, "CLASSIFICATION_TYPE": "U", "NORAD_CAT_ID": 32323, "ELEMENT_SET_NO": 999, "REV_AT_EPOCH": 60366, "BSTAR": 0.0022503, "MEAN_MOTION_DOT": 3.415e-05, "MEAN_MOTION_DDOT": 0}, "tle": {"line1": "1 32323U 99025CXQ 25353.63835108  .00003415  00000+0  22503-2 0  9996", "line2": "2 32323  98.5704 136.3682 0156230 190.9743 168.7999 13.96612746603662"}}, "geometry": {"type": "Point", "coordinates": [-36.193829877070804, 24.842777538904507]}}, {"type": "Feature", "properties": {"norad_id": 32324, "name": "FENGYUN 1C DEB", "group": "fengyun-1c-debris", "lat": 79.3101877325068, "lon": -17.417461435160288, "alt_km": 861.009783042392, "timestamp": "2025-12-23T07:45:09.690458+00:00", "meta": {"OBJECT_NAME": "FENGYUN 1C DEB", "OBJECT_ID": "1999-025CXR", "EPOCH": "2025-12-22T05:44:45.192480", "MEAN_MOTION": 14.09162225, "ECCENTRICITY": 0.00496658, "INCLINATION": 99.5329, "RA_OF_ASC_NODE": 98.54, "ARG_OF_PERICENTER": 357.6402, "MEAN_ANOMALY": 2.4524, "EPHEMERIS_TYPE": 0, "CLASSIFICATION_TYPE": "U", "NORAD_CAT_ID": 32324, "ELEMENT_SET_NO": 999, "REV_AT_EPOCH": 64132, "BSTAR": 0.00044291261, "MEAN_MOTION_DOT": 7.29e-06, "MEAN_MOTION_DDOT": 0}, "tle": {"line1": "1 32324U 99025CXR 25356.23941195  .00000729  00000+0  44291-3 0  9994", "line2": "2 32324  99.5329  98.5400 0049665 357.6402   2.4524 14.09162225641321"}}, "geometry": {"type": "Point", "coordinates": [-17.417461435160288, 79.3101877325068]}}, {"type": "Feature", "properties": {"norad_id": 32326, "name": "FENGYUN 1C DEB", "group": "fengyun-1c-debris", "lat": -80.8801517932103, "lon": 36.99479257460951, "alt_km": 1267.4467129264513, "timestamp": "2025-12-23T07:45:09.690468+00:00", "meta": {"OBJECT_NAME": "FENGYUN 1C DEB", "OBJECT_ID": "1999-025CXT", "EPOCH": "2025-12-21T01:52:21.182880", "MEAN_MOTION": 13.69292116, "ECCENTRICITY": 0.03867691, "INCLINATION": 98.4887, "RA_OF_ASC_NODE": 283.4918, "ARG_OF_PERICENTER": 117.0744, "MEAN_ANOMALY": 247.0417, "EPHEMERIS_TYPE": 0, "CLASSIFICATION_TYPE": "U", "NORAD_CAT_ID": 32326, "ELEMENT_SET_NO": 999, "REV_AT_EPOCH": 63296, "BSTAR": 0.00039414066, "MEAN_MOTION_DOT": 5.46e-06, "MEAN_MOTION_DDOT": 0}, "tle": {"line1": "1 32326U 99025CXT 25355.07802295  .00000546  00000+0  39414-3 0  9992", "line2": "2 32326  98.4887 283.4918 0386769 117.0744 247.0417 13.69292116632961"}}, "geometry": {"type": "Point", "coordinates": [36.99479257460951, -80.8801517932103]}}, {"type": "Feature", "properties": {"norad_id": 32332, "name": "FENGYUN 1C DEB", "group": "fengyun-1c-debris", "lat": -18.632188809967566, "lon": 54.426915303120246, "alt_km": 792.6934817600177, "timestamp": "2025-12-23T07:45:09.690479+00:00", "meta": {"OBJECT_NAME": "FENGYUN 1C DEB", "OBJECT_ID": "1999-025CXZ", "EPOCH": "2025-12-15T21:05:55.809024", "MEAN_MOTION": 13.97153731, "ECCENTRICITY": 0.02851681, "INCLINATION": 99.133, "RA_OF_ASC_NODE": 43.9123, "ARG_OF_PERICENTER": 304.1737, "MEAN_ANOMALY": 53.2688, "EPHEMERIS_TYPE": 0, "CLASSIFICATION_TYPE": "U", "NORAD_CAT_ID": 32332, "ELEMENT_SET_NO": 999, "REV_AT_EPOCH": 93080, "BSTAR": 0.0011409516, "MEAN_MOTION_DOT": 2.204e-05, "MEAN_MOTION_DDOT": 0}, "tle": {"line1": "1 32332U 99025CXZ 25349.87911816  .00002204  00000+0  11410-2 0  9998", "line2": "2 32332  99.1330  43.9123 0285168 304.1737  53.2688 13.97153731930809"}}, "geometry": {"type": "Point", "coordinates": [54.426915303120246, -18.632188809967566]}}, {"type": "Feature", "properties": {"norad_id": 32334, "name": "FENGYUN 1C DEB", "group": "fengyun-1c-debris", "lat": -17.307704619546588, "lon": 54.791196273478896, "alt_km": 893.423656708097, "timestamp": "2025-12-23T07:45:09.690489+00:00", "meta": {"OBJECT_NAME": "FENGYUN 1C DEB", "OBJECT_ID": "1999-025CYB", "EPOCH": "2025-12-21T14:43:10.098912", "MEAN_MOTION": 14.01649583, "ECCENTRICITY": 0.00669253, "INCLINATION": 99.2511, "RA_OF_ASC_NODE": 50.1471, "ARG_OF_PERICENTER": 256.2846, "MEAN_ANOMALY": 103.0862, "EPHEMERIS_TYPE": 0, "CLASSIFICATION_TYPE": "U", "NORAD_CAT_ID": 32334, "ELEMENT_SET_NO": 999, "REV_AT_EPOCH": 94064, "BSTAR": 0.00021928387, "MEAN_MOTION_DOT": 2.92e-06, "MEAN_MOTION_DDOT": 0}, "tle": {"line1": "1 32334U 99025CYB 25355.61331133  .00000292  00000+0  21928-3 0  9998", "line2": "2 32334  99.2511  50.1471 0066925 256.2846 103.0862 14.01649583940647"}}, "geometry": {"type": "Point", "coordinates": [54.791196273478896, -17.307704619546588]}}, {"type": "Feature", "properties": {"norad_id": 32340, "name": "FENGYUN 1C DEB", "group": "fengyun-1c-debris", "lat": 25.50475085374177, "lon": -171.4059749452104, "alt_km": 651.0815790320557, "timestamp": "2025-12-23T07:45:09.690499+00:00", "meta": {"OBJECT_NAME": "FENGYUN 1C DEB", "OBJECT_ID": "1999-025CYH", "EPOCH": "2025-12-22T11:30:52.711200", "MEAN_MOTION": 14.74869019, "ECCENTRICITY": 0.00335985, "INCLINATION": 98.9802, "RA_OF_ASC_NODE": 3.3329, "ARG_OF_PERICENTER": 262.6746, "MEAN_ANOMALY": 97.0641, "EPHEMERIS_TYPE": 0, "CLASSIFICATION_TYPE": "U", "NORAD_CAT_ID": 32340, "ELEMENT_SET_NO": 999, "REV_AT_EPOCH": 97340, "BSTAR": 0.0025684979, "MEAN_MOTION_DOT": 0.0001736, "MEAN_MOTION_DDOT": 0}, "tle": {"line1": "1 32340U 99025CYH 25356.47977675  .00017360  00000+0  25685-2 0  9994", "line2": "2 32340  98.9802   3.3329 0033598 262.6746  97.0641 14.74869019973400"}}, "geometry": {"type": "Point", "coordinates": [-171.4059749452104, 25.50475085374177]}}, {"type": "Feature", "properties": {"norad_id": 32342, "name": "FENGYUN 1C DEB", "group": "fengyun-1c-debris", "lat": 63.48772874578835, "lon": -12.207883277416416, "alt_km": 842.8351428169799, "timestamp": "2025-12-23T07:45:09.690511+00:00", "meta": {"OBJECT_NAME": "FENGYUN 1C DEB", "OBJECT_ID": "1999-025CYK", "EPOCH": "2025-12-22T11:47:20.749632", "MEAN_MOTION": 14.13402819, "ECCENTRICITY": 0.00070185, "INCLINATION": 98.6699, "RA_OF_ASC_NODE": 4.7963, "ARG_OF_PERICENTER": 322.2632, "MEAN_ANOMALY": 192.4362, "EPHEMERIS_TYPE": 0, "CLASSIFICATION_TYPE": "U", "NORAD_CAT_ID": 32342, "ELEMENT_SET_NO": 999, "REV_AT_EPOCH": 93855, "BSTAR": 0.0001052798, "MEAN_MOTION_DOT": 1.55e-06, "MEAN_MOTION_DDOT": 0}, "tle": {"line1": "1 32342U 99025CYK 25356.49121238  .00000155  00000+0  10528-3 0  9999", "line2": "2 32342  98.6699   4.7963 0007018 322.2632 192.4362 14.13402819938558"}}, "geometry": {"type": "Point", "coordinates": [-12.207883277416416, 63.48772874578835]}}, {"type": "Feature", "properties": {"norad_id": 32343, "name": "FENGYUN 1C DEB", "group": "fengyun-1c-debris", "lat": 51.95795123945152, "lon": 174.97163070656475, "alt_km": 725.5851040356301, "timestamp": "2025-12-23T07:45:09.690521+00:00", "meta": {"OBJECT_NAME": "FENGYUN 1C DEB", "OBJECT_ID": "1999-025CYL", "EPOCH": "2025-12-13T05:18:56.833632", "MEAN_MOTION": 14.19848796, "ECCENTRICITY": 0.01521973, "INCLINATION": 98.6084, "RA_OF_ASC_NODE": 333.9812, "ARG_OF_PERICENTER": 126.2805, "MEAN_ANOMALY": 235.2541, "EPHEMERIS_TYPE": 0, "CLASSIFICATION_TYPE": "U", "NORAD_CAT_ID": 32343, "ELEMENT_SET_NO": 999, "REV_AT_EPOCH": 64720, "BSTAR": 0.00041342117, "MEAN_MOTION_DOT": 9.43e-06, "MEAN_MOTION_DDOT": 0}, "tle": {"line1": "1 32343U 99025CYL 25347.22149113  .00000943  00000+0  41342-3 0  9996", "line2": "2 32343  98.6084 333.9812 0152197 126.2805 235.2541 14.19848796647208"}}, "geometry": {"type": "Point", "coordinates": [174.97163070656475, 51.95795123945152]}}, {"type": "Feature", "properties": {"norad_id": 32350, "name": "FENGYUN 1C DEB", "group": "fengyun-1c-debris", "lat": -24.949985777836034, "lon": -141.97903943971286, "alt_km": 626.366025245622, "timestamp": "2025-12-23T07:45:09.690531+00:00", "meta": {"OBJECT_NAME": "FENGYUN 1C DEB", "OBJECT_ID": "1999-025CYT", "EPOCH": "2025-12-22T09:17:40.216992", "MEAN_MOTION": 14.52643054, "ECCENTRICITY": 0.02666329, "INCLINATION": 98.2275, "RA_OF_ASC_NODE": 40.9619, "ARG_OF_PERICENTER": 268.7559, "MEAN_ANOMALY": 88.3082, "EPHEMERIS_TYPE": 0, "CLASSIFICATION_TYPE": "U", "NORAD_CAT_ID": 32350, "ELEMENT_SET_NO": 999, "REV_AT_EPOCH": 97667, "BSTAR": 0.00076292085, "MEAN_MOTION_DOT": 4.938e-05, "MEAN_MOTION_DDOT": 0}, "tle": {"line1": "1 32350U 99025CYT 25356.38727103  .00004938  00000+0  76292-3 0  9992", "line2": "2 32350  98.2275  40.9619 0266632 268.7559  88.3082 14.52643054976672"}}, "geometry": {"type": "Point", "coordinates": [-141.97903943971286, -24.949985777836034]}}, {"type": "Feature", "properties": {"norad_id": 32352, "name": "FENGYUN 1C DEB", "group": "fengyun-1c-debris", "lat": -64.69789100640448, "lon": 78.5432354969533, "alt_km": 784.784428648928, "timestamp": "2025-12-23T07:45:09.690561+00:00", "meta": {"OBJECT_NAME": "FENGYUN 1C DEB", "OBJECT_ID": "1999-025CYV", "EPOCH": "2025-12-19T12:39:41.171040", "MEAN_MOTION": 14.41429626, "ECCENTRICITY": 0.0122359, "INCLINATION": 98.7786, "RA_OF_ASC_NODE": 273.7231, "ARG_OF_PERICENTER": 150.9024, "MEAN_ANOMALY": 209.9056, "EPHEMERIS_TYPE": 0, "CLASSIFICATION_TYPE": "U", "NORAD_CAT_ID": 32352, "ELEMENT_SET_NO": 999, "REV_AT_EPOCH": 65367, "BSTAR": 0.0001377, "MEAN_MOTION_DOT": 4.38e-06, "MEAN_MOTION_DDOT": 0}, "tle": {"line1": "1 32352U 99025CYV 25353.52755985  .00000438  00000+0  13770-3 0  9999", "line2": "2 32352  98.7786 273.7231 0122359 150.9024 209.9056 14.41429626653677"}}, "geometry": {"type": "Point", "coordinates": [78.5432354969533, -64.69789100640448]}}]}